[Satellite]
VERSION=1.1
NAME=STARLINK-5168
NICKNAME=STARLINK-5168
TLE1=1 54071U 22136W   22321.58334491  .00006943  00000+0  13010-3 0  9997
TLE2=2 54071  53.2156  10.5532 0001662  34.7143 113.7028 15.49900254  1309
STATUS=0
